[{"OBJECT_NAME":"STARLINK-2097","OBJECT_ID":"2021-005AE","EPOCH":"2026-03-09T05:49:42.104352","MEAN_MOTION":15.06382302,"ECCENTRICITY":0.00017017,"INCLINATION":53.0556,"RA_OF_ASC_NODE":63.6258,"ARG_OF_PERICENTER":79.4029,"MEAN_ANOMALY":280.7151,"EPHEMERIS_TYPE":0,"CLASSIFICATION_TYPE":"U","NORAD_CAT_ID":47377,"ELEMENT_SET_NO":999,"REV_AT_EPOCH":28297,"BSTAR":-0.00011661326,"MEAN_MOTION_DOT":-2.017e-5,"MEAN_MOTION_DDOT":0},{"OBJECT_NAME":"FENGYUN 1C DEB","OBJECT_ID":"1999-025BZZ","EPOCH":"2026-03-09T13:05:44.544480","MEAN_MOTION":14.97363263,"ECCENTRICITY":0.00745573,"INCLINATION":99.0712,"RA_OF_ASC_NODE":279.0573,"ARG_OF_PERICENTER":15.484,"MEAN_ANOMALY":344.8634,"EPHEMERIS_TYPE":0,"CLASSIFICATION_TYPE":"U","NORAD_CAT_ID":31619,"ELEMENT_SET_NO":999,"REV_AT_EPOCH":64782,"BSTAR":0.0036839182,"MEAN_MOTION_DOT":0.00045478,"MEAN_MOTION_DDOT":0}]
